start=new Date('2023-04-03T00:00:00.000Z').valueOf();
sats=[{"OBJECT_ID":"2021-005BK","EPHEMERIS_TYPE":"0","REV_AT_EPOCH":"12187","TLE_LINE1":"1 47406U 21005BK  23092.59930254  .00046858  00000-0  31386-2 0  9996","TLE_LINE2":"2 47406  53.0534 164.4164 0001209  69.3398 290.7721 15.06461610121876","ECCENTRICITY":"0.00012090","ELEMENT_SET_NO":"999","BSTAR":"0.00313860000000","OBJECT_TYPE":"PAYLOAD","DECAY_DATE":null,"LAUNCH_DATE":"2021-01-20","MEAN_ANOMALY":"290.7721","NORAD_CAT_ID":"47406","TIME_SYSTEM":"UTC","OBJECT_NAME":"STARLINK-2133","RCS_SIZE":"LARGE","SEMIMAJOR_AXIS":"6925.160","PERIOD":"95.588","MEAN_MOTION":"15.06461610","MEAN_MOTION_DOT":"0.00046858","MEAN_MOTION_DDOT":"0.0000000000000","MEAN_ELEMENT_THEORY":"SGP4","SITE":"AFETR","INCLINATION":"53.0534","REF_FRAME":"TEME","CENTER_NAME":"EARTH","PERIAPSIS":"546.187","EPOCH":"2023-04-02T14:22:59.739456","APOAPSIS":"547.862","CLASSIFICATION_TYPE":"U","RA_OF_ASC_NODE":"164.4164","ARG_OF_PERICENTER":"69.3398","FILE":"3878126","GP_ID":"229317353","COUNTRY_CODE":"US"},{"MEAN_ANOMALY":"286.8746","NORAD_CAT_ID":"47407","TIME_SYSTEM":"UTC","LAUNCH_DATE":"2021-01-20","SEMIMAJOR_AXIS":"6925.361","PERIOD":"95.592","RCS_SIZE":"LARGE","OBJECT_NAME":"STARLINK-2134","TLE_LINE1":"1 47407U 21005BL  23092.60667602  .00030816  00000-0  20789-2 0  9995","TLE_LINE2":"2 47407  53.0525 164.3862 0001394  73.2395 286.8746 15.06395923121873","ECCENTRICITY":"0.00013940","OBJECT_ID":"2021-005BL","REV_AT_EPOCH":"12187","EPHEMERIS_TYPE":"0","OBJECT_TYPE":"PAYLOAD","DECAY_DATE":null,"ELEMENT_SET_NO":"999","BSTAR":"0.00207890000000","CLASSIFICATION_TYPE":"U","RA_OF_ASC_NODE":"164.3862","PERIAPSIS":"546.261","EPOCH":"2023-04-02T14:33:36.808128","APOAPSIS":"548.191","GP_ID":"229349815","COUNTRY_CODE":"US","ARG_OF_PERICENTER":"73.2395","FILE":"3878419","SITE":"AFETR","MEAN_MOTION":"15.06395923","MEAN_MOTION_DDOT":"0.0000000000000","MEAN_MOTION_DOT":"0.00030816","MEAN_ELEMENT_THEORY":"SGP4","REF_FRAME":"TEME","CENTER_NAME":"EARTH","INCLINATION":"53.0525"},{"LAUNCH_DATE":"2021-01-20","MEAN_ANOMALY":"286.4238","NORAD_CAT_ID":"47408","TIME_SYSTEM":"UTC","RCS_SIZE":"LARGE","OBJECT_NAME":"STARLINK-2135","SEMIMAJOR_AXIS":"6925.313","PERIOD":"95.591","OBJECT_ID":"2021-005BM","EPHEMERIS_TYPE":"0","REV_AT_EPOCH":"12192","TLE_LINE1":"1 47408U 21005BM  23092.90893165  .00027927  00000-0  18857-2 0  9996","TLE_LINE2":"2 47408  53.0524 163.0283 0001267  73.6890 286.4238 15.06411693121920","ECCENTRICITY":"0.00012670","ELEMENT_SET_NO":"999","BSTAR":"0.00188570000000","OBJECT_TYPE":"PAYLOAD","DECAY_DATE":null,"PERIAPSIS":"546.300","APOAPSIS":"548.055","EPOCH":"2023-04-02T21:48:51.694560","CLASSIFICATION_TYPE":"U","RA_OF_ASC_NODE":"163.0283","ARG_OF_PERICENTER":"73.6890","FILE":"3878419","GP_ID":"229349838","COUNTRY_CODE":"US","MEAN_MOTION":"15.06411693","MEAN_MOTION_DOT":"0.00027927","MEAN_MOTION_DDOT":"0.0000000000000","MEAN_ELEMENT_THEORY":"SGP4","SITE":"AFETR","INCLINATION":"53.0524","REF_FRAME":"TEME","CENTER_NAME":"EARTH"},{"OBJECT_TYPE":"PAYLOAD","DECAY_DATE":null,"BSTAR":"0.00140750000000","ELEMENT_SET_NO":"999","TLE_LINE2":"2 47548  53.0530 143.3027 0001302  70.6148 289.4982 15.06434402119381","ECCENTRICITY":"0.00013020","TLE_LINE1":"1 47548U 21009A   23092.84808729  .00020765  00000-0  14075-2 0  9991","REV_AT_EPOCH":"11938","EPHEMERIS_TYPE":"0","OBJECT_ID":"2021-009A","PERIOD":"95.590","SEMIMAJOR_AXIS":"6925.243","OBJECT_NAME":"STARLINK-1782","RCS_SIZE":"LARGE","NORAD_CAT_ID":"47548","TIME_SYSTEM":"UTC","MEAN_ANOMALY":"289.4982","LAUNCH_DATE":"2021-02-04","CENTER_NAME":"EARTH","REF_FRAME":"TEME","INCLINATION":"53.0530","SITE":"AFETR","MEAN_ELEMENT_THEORY":"SGP4","MEAN_MOTION":"15.06434402","MEAN_MOTION_DDOT":"0.0000000000000","MEAN_MOTION_DOT":"0.00020765","COUNTRY_CODE":"US","GP_ID":"229350103","FILE":"3878419","ARG_OF_PERICENTER":"70.6148","CLASSIFICATION_TYPE":"U","RA_OF_ASC_NODE":"143.3027","APOAPSIS":"548.010","EPOCH":"2023-04-02T20:21:14.741856","PERIAPSIS":"546.206"},{"COUNTRY_CODE":"US","GP_ID":"229351355","FILE":"3878419","ARG_OF_PERICENTER":"92.2121","CLASSIFICATION_TYPE":"U","RA_OF_ASC_NODE":"143.3201","EPOCH":"2023-04-02T20:15:57.980448","APOAPSIS":"548.019","PERIAPSIS":"546.398","CENTER_NAME":"EARTH","REF_FRAME":"TEME","INCLINATION":"53.0528","SITE":"AFETR","MEAN_ELEMENT_THEORY":"SGP4","MEAN_MOTION":"15.06401647","MEAN_MOTION_DDOT":"0.0000000000000","MEAN_MOTION_DOT":"0.00016604","SEMIMAJOR_AXIS":"6925.344","PERIOD":"95.592","RCS_SIZE":"LARGE","OBJECT_NAME":"STARLINK-1806","NORAD_CAT_ID":"47549","TIME_SYSTEM":"UTC","MEAN_ANOMALY":"267.9002","LAUNCH_DATE":"2021-02-04","OBJECT_TYPE":"PAYLOAD","DECAY_DATE":null,"BSTAR":"0.00113090000000","ELEMENT_SET_NO":"999","TLE_LINE2":"2 47549  53.0528 143.3201 0001171  92.2121 267.9002 15.06401647119387","ECCENTRICITY":"0.00011710","TLE_LINE1":"1 47549U 21009B   23092.84442107  .00016604  00000-0  11309-2 0  9990","REV_AT_EPOCH":"11938","EPHEMERIS_TYPE":"0","OBJECT_ID":"2021-009B"},{"COUNTRY_CODE":"US","GP_ID":"229318108","FILE":"3878126","ARG_OF_PERICENTER":"78.8049","CLASSIFICATION_TYPE":"U","RA_OF_ASC_NODE":"134.7549","APOAPSIS":"548.248","EPOCH":"2023-04-02T12:35:30.853824","PERIAPSIS":"546.212","CENTER_NAME":"EARTH","REF_FRAME":"TEME","INCLINATION":"53.0534","SITE":"AFETR","MEAN_ELEMENT_THEORY":"SGP4","MEAN_MOTION":"15.06394599","MEAN_MOTION_DDOT":"0.0000000000000","MEAN_MOTION_DOT":"0.00025061","PERIOD":"95.592","SEMIMAJOR_AXIS":"6925.365","OBJECT_NAME":"STARLINK-1909","RCS_SIZE":"LARGE","NORAD_CAT_ID":"47550","TIME_SYSTEM":"UTC","MEAN_ANOMALY":"281.3105","LAUNCH_DATE":"2021-02-04","OBJECT_TYPE":"PAYLOAD","DECAY_DATE":null,"BSTAR":"0.00169560000000","ELEMENT_SET_NO":"999","TLE_LINE2":"2 47550  53.0534 134.7549 0001470  78.8049 281.3105 15.06394599119477","ECCENTRICITY":"0.00014700","TLE_LINE1":"1 47550U 21009C   23092.52466266  .00025061  00000-0  16956-2 0  9999","REV_AT_EPOCH":"11947","EPHEMERIS_TYPE":"0","OBJECT_ID":"2021-009C"},{"CENTER_NAME":"EARTH","REF_FRAME":"TEME","INCLINATION":"53.0539","SITE":"AFETR","MEAN_ELEMENT_THEORY":"SGP4","MEAN_MOTION_DOT":"0.00021973","MEAN_MOTION_DDOT":"0.0000000000000","MEAN_MOTION":"15.06410688","COUNTRY_CODE":"US","GP_ID":"229350354","FILE":"3878419","ARG_OF_PERICENTER":"66.8144","RA_OF_ASC_NODE":"153.2870","CLASSIFICATION_TYPE":"U","EPOCH":"2023-04-02T20:25:15.396960","APOAPSIS":"548.191","PERIAPSIS":"546.171","DECAY_DATE":null,"OBJECT_TYPE":"PAYLOAD","BSTAR":"0.00148900000000","ELEMENT_SET_NO":"999","ECCENTRICITY":"0.00014580","TLE_LINE2":"2 47551  53.0539 153.2870 0001458  66.8144 293.2998 15.06410688119240","TLE_LINE1":"1 47551U 21009D   23092.85087265  .00021973  00000-0  14890-2 0  9997","REV_AT_EPOCH":"11924","EPHEMERIS_TYPE":"0","OBJECT_ID":"2021-009D","SEMIMAJOR_AXIS":"6925.316","PERIOD":"95.591","RCS_SIZE":"LARGE","OBJECT_NAME":"STARLINK-1938","TIME_SYSTEM":"UTC","NORAD_CAT_ID":"47551","MEAN_ANOMALY":"293.2998","LAUNCH_DATE":"2021-02-04"},{"MEAN_MOTION_DOT":"0.00019792","MEAN_MOTION_DDOT":"0.0000000000000","MEAN_MOTION":"15.06406723","MEAN_ELEMENT_THEORY":"SGP4","SITE":"AFETR","INCLINATION":"53.0526","REF_FRAME":"TEME","CENTER_NAME":"EARTH","PERIAPSIS":"546.319","APOAPSIS":"548.067","EPOCH":"2023-04-02T20:31:53.795136","RA_OF_ASC_NODE":"143.2689","CLASSIFICATION_TYPE":"U","ARG_OF_PERICENTER":"85.1941","FILE":"3878419","GP_ID":"229350604","COUNTRY_CODE":"US","OBJECT_ID":"2021-009E","REV_AT_EPOCH":"11938","EPHEMERIS_TYPE":"0","TLE_LINE1":"1 47552U 21009E   23092.85548374  .00019792  00000-0  13436-2 0  9992","ECCENTRICITY":"0.00012620","TLE_LINE2":"2 47552  53.0526 143.2689 0001262  85.1941 274.9192 15.06406723119388","ELEMENT_SET_NO":"999","BSTAR":"0.00134360000000","DECAY_DATE":null,"OBJECT_TYPE":"PAYLOAD","LAUNCH_DATE":"2021-02-04","MEAN_ANOMALY":"274.9192","TIME_SYSTEM":"UTC","NORAD_CAT_ID":"47552","RCS_SIZE":"LARGE","OBJECT_NAME":"STARLINK-1940","PERIOD":"95.592","SEMIMAJOR_AXIS":"6925.328"},{"SEMIMAJOR_AXIS":"6925.402","PERIOD":"95.593","OBJECT_NAME":"STARLINK-1953","RCS_SIZE":"LARGE","MEAN_ANOMALY":"283.4685","NORAD_CAT_ID":"47554","TIME_SYSTEM":"UTC","LAUNCH_DATE":"2021-02-04","DECAY_DATE":null,"OBJECT_TYPE":"PAYLOAD","ELEMENT_SET_NO":"999","BSTAR":"0.00220670000000","TLE_LINE1":"1 47554U 21009G   23092.59561711  .00032725  00000-0  22067-2 0  9996","TLE_LINE2":"2 47554  53.0546 164.4343 0001420  76.6463 283.4685 15.06382712119062","ECCENTRICITY":"0.00014200","OBJECT_ID":"2021-009G","REV_AT_EPOCH":"11906","EPHEMERIS_TYPE":"0","GP_ID":"229317369","COUNTRY_CODE":"US","ARG_OF_PERICENTER":"76.6463","FILE":"3878126","CLASSIFICATION_TYPE":"U","RA_OF_ASC_NODE":"164.4343","PERIAPSIS":"546.283","EPOCH":"2023-04-02T14:17:41.318304","APOAPSIS":"548.250","REF_FRAME":"TEME","CENTER_NAME":"EARTH","INCLINATION":"53.0546","SITE":"AFETR","MEAN_MOTION":"15.06382712","MEAN_MOTION_DDOT":"0.0000000000000","MEAN_MOTION_DOT":"0.00032725","MEAN_ELEMENT_THEORY":"SGP4"},{"COUNTRY_CODE":"US","GP_ID":"229349831","FILE":"3878419","ARG_OF_PERICENTER":"66.1442","RA_OF_ASC_NODE":"153.0598","CLASSIFICATION_TYPE":"U","EPOCH":"2023-04-02T21:39:33.531552","APOAPSIS":"548.115","PERIAPSIS":"546.219","CENTER_NAME":"EARTH","REF_FRAME":"TEME","INCLINATION":"53.0531","SITE":"AFETR","MEAN_ELEMENT_THEORY":"SGP4","MEAN_MOTION_DDOT":"0.0000000000000","MEAN_MOTION_DOT":"0.00026456","MEAN_MOTION":"15.06415263","PERIOD":"95.591","SEMIMAJOR_AXIS":"6925.302","OBJECT_NAME":"STARLINK-1954","RCS_SIZE":"LARGE","TIME_SYSTEM":"UTC","NORAD_CAT_ID":"47555","MEAN_ANOMALY":"293.9690","LAUNCH_DATE":"2021-02-04","OBJECT_TYPE":"PAYLOAD","DECAY_DATE":null,"BSTAR":"0.00178760000000","ELEMENT_SET_NO":"999","ECCENTRICITY":"0.00013690","TLE_LINE2":"2 47555  53.0531 153.0598 0001369  66.1442 293.9690 15.06415263119257","TLE_LINE1":"1 47555U 21009H   23092.90247143  .00026456  00000-0  17876-2 0  9998","EPHEMERIS_TYPE":"0","REV_AT_EPOCH":"11925","OBJECT_ID":"2021-009H"}];
